[Satellite]
VERSION=1.1
NAME=SL-8 R/B
NICKNAME=SL-8 R/B
TLE1=1 02802U 67045B   17186.23328195  .00000041  00000-0  19907-4 0  9995
TLE2=2 02802  74.0118 133.0975 0066805 184.2650 175.7947 14.43648901631587
